{
  "links" : {
    "next" : "https://api.nasa.gov/neo/rest/v1/feed?start_date=2007-08-09&end_date=2007-08-09&detailed=true&api_key=t0TVs3DtDT2H8Oy2Zy8m2eVrNsAVKAexjcZXUckd",
    "prev" : "https://api.nasa.gov/neo/rest/v1/feed?start_date=2007-08-07&end_date=2007-08-07&detailed=true&api_key=t0TVs3DtDT2H8Oy2Zy8m2eVrNsAVKAexjcZXUckd",
    "self" : "https://api.nasa.gov/neo/rest/v1/feed?start_date=2007-08-08&end_date=2007-08-08&detailed=true&api_key=t0TVs3DtDT2H8Oy2Zy8m2eVrNsAVKAexjcZXUckd"
  },
  "element_count" : 10,
  "near_earth_objects" : {
    "2007-08-08" : [ {
      "links" : {
        "self" : "https://api.nasa.gov/neo/rest/v1/neo/3724110?api_key=t0TVs3DtDT2H8Oy2Zy8m2eVrNsAVKAexjcZXUckd"
      },
      "neo_reference_id" : "3724110",
      "name" : "(2015 NY13)",
      "nasa_jpl_url" : "http://ssd.jpl.nasa.gov/sbdb.cgi?sstr=3724110",
      "absolute_magnitude_h" : 21.1,
      "estimated_diameter" : {
        "kilometers" : {
          "estimated_diameter_min" : 0.160160338,
          "estimated_diameter_max" : 0.358129403
        },
        "meters" : {
          "estimated_diameter_min" : 160.1603379786,
          "estimated_diameter_max" : 358.1294030194
        },
        "miles" : {
          "estimated_diameter_min" : 0.0995189894,
          "estimated_diameter_max" : 0.2225312253
        },
        "feet" : {
          "estimated_diameter_min" : 525.4604432536,
          "estimated_diameter_max" : 1174.9652706022
        }
      },
      "is_potentially_hazardous_asteroid" : false,
      "close_approach_data" : [ {
        "close_approach_date" : "2007-08-08",
        "epoch_date_close_approach" : 1186556400000,
        "relative_velocity" : {
          "kilometers_per_second" : "17.1401070598",
          "kilometers_per_hour" : "61704.3854153225",
          "miles_per_hour" : "38340.705482093"
        },
        "miss_distance" : {
          "astronomical" : "0.3882517229",
          "lunar" : "151.0299224854",
          "kilometers" : "58081632",
          "miles" : "36090252"
        },
        "orbiting_body" : "Earth"
      } ],
      "orbital_data" : {
        "orbit_id" : "15",
        "orbit_determination_date" : "2017-07-26 06:19:35",
        "orbit_uncertainty" : "1",
        "minimum_orbit_intersection" : ".316524",
        "jupiter_tisserand_invariant" : "4.189",
        "epoch_osculation" : "2458000.5",
        "eccentricity" : ".1938734486389059",
        "semi_major_axis" : "1.589584468757383",
        "inclination" : "32.36162590534845",
        "ascending_node_longitude" : "308.4406749638867",
        "orbital_period" : "732.0215105666493",
        "perihelion_distance" : "1.281406245896546",
        "perihelion_argument" : "42.72053405036652",
        "aphelion_distance" : "1.897762691618221",
        "perihelion_time" : "2458014.374666935925",
        "mean_anomaly" : "353.1765938229514",
        "mean_motion" : ".4917888269722132",
        "equinox" : "J2000"
      }
    } ]
  }
}